CCSDS_OMM_VERS = 2.0
CREATION_DATE  = 
ORIGINATOR     = 

OBJECT_NAME    = SL-14 R/B
OBJECT_ID      = 1986-046B
CENTER_NAME    = EARTH
REF_FRAME      = TEME
TIME_SYSTEM    = UTC
MEAN_ELEMENT_THEORY = SGP/SGP4

EPOCH          = 2026-01-24T16:32:29.825376
MEAN_MOTION    = 14.85542658
ECCENTRICITY   = .00234906
INCLINATION    = 82.4834
RA_OF_ASC_NODE = 121.7555
ARG_OF_PERICENTER = 17.1807
MEAN_ANOMALY   = 343.0198

EPHEMERIS_TYPE = 0
CLASSIFICATION_TYPE = U
NORAD_CAT_ID   = 16792
ELEMENT_SET_NO = 999
REV_AT_EPOCH   = 11987
BSTAR          = .9588377E-4
MEAN_MOTION_DOT = .856E-5
MEAN_MOTION_DDOT = 0

CCSDS_OMM_VERS = 2.0
CREATION_DATE  = 
ORIGINATOR     = 

OBJECT_NAME    = SL-14 R/B
OBJECT_ID      = 1986-055B
CENTER_NAME    = EARTH
REF_FRAME      = TEME
TIME_SYSTEM    = UTC
MEAN_ELEMENT_THEORY = SGP/SGP4

EPOCH          = 2026-01-24T16:14:37.036320
MEAN_MOTION    = 14.85588167
ECCENTRICITY   = .0020275
INCLINATION    = 82.5218
RA_OF_ASC_NODE = 168.0263
ARG_OF_PERICENTER = 115.9820
MEAN_ANOMALY   = 255.0201

EPHEMERIS_TYPE = 0
CLASSIFICATION_TYPE = U
NORAD_CAT_ID   = 16882
ELEMENT_SET_NO = 999
REV_AT_EPOCH   = 11283
BSTAR          = .11543598E-3
MEAN_MOTION_DOT = .1026E-4
MEAN_MOTION_DDOT = 0

CCSDS_OMM_VERS = 2.0
CREATION_DATE  = 
ORIGINATOR     = 

OBJECT_NAME    = AJISAI (EGS)
OBJECT_ID      = 1986-061A
CENTER_NAME    = EARTH
REF_FRAME      = TEME
TIME_SYSTEM    = UTC
MEAN_ELEMENT_THEORY = SGP/SGP4

EPOCH          = 2026-01-24T23:13:32.933856
MEAN_MOTION    = 12.44515243
ECCENTRICITY   = .00112655
INCLINATION    = 50.0061
RA_OF_ASC_NODE = 227.7940
ARG_OF_PERICENTER = 174.6358
MEAN_ANOMALY   = 342.2682

EPHEMERIS_TYPE = 0
CLASSIFICATION_TYPE = U
NORAD_CAT_ID   = 16908
ELEMENT_SET_NO = 999
REV_AT_EPOCH   = 46255
BSTAR          = .10924724E-3
MEAN_MOTION_DOT = -.82E-6
MEAN_MOTION_DDOT = 0

CCSDS_OMM_VERS = 2.0
CREATION_DATE  = 
ORIGINATOR     = 

OBJECT_NAME    = COSMOS 1812
OBJECT_ID      = 1987-003A
CENTER_NAME    = EARTH
REF_FRAME      = TEME
TIME_SYSTEM    = UTC
MEAN_ELEMENT_THEORY = SGP/SGP4

EPOCH          = 2026-01-24T01:53:48.773472
MEAN_MOTION    = 15.87397397
ECCENTRICITY   = .00014218
INCLINATION    = 82.4810
RA_OF_ASC_NODE = 245.8176
ARG_OF_PERICENTER = 42.1643
MEAN_ANOMALY   = 317.9737

EPHEMERIS_TYPE = 0
CLASSIFICATION_TYPE = U
NORAD_CAT_ID   = 17295
ELEMENT_SET_NO = 999
REV_AT_EPOCH   = 13734
BSTAR          = .82158731E-3
MEAN_MOTION_DOT = .220051E-2
MEAN_MOTION_DDOT = 0

CCSDS_OMM_VERS = 2.0
CREATION_DATE  = 
ORIGINATOR     = 

OBJECT_NAME    = SL-14 R/B
OBJECT_ID      = 1987-024B
CENTER_NAME    = EARTH
REF_FRAME      = TEME
TIME_SYSTEM    = UTC
MEAN_ELEMENT_THEORY = SGP/SGP4

EPOCH          = 2026-01-24T17:43:39.849888
MEAN_MOTION    = 14.86083511
ECCENTRICITY   = .00193705
INCLINATION    = 82.5303
RA_OF_ASC_NODE = 134.0642
ARG_OF_PERICENTER = 49.6069
MEAN_ANOMALY   = 310.6834

EPHEMERIS_TYPE = 0
CLASSIFICATION_TYPE = U
NORAD_CAT_ID   = 17567
ELEMENT_SET_NO = 999
REV_AT_EPOCH   = 8160
BSTAR          = .98448115E-4
MEAN_MOTION_DOT = .889E-5
MEAN_MOTION_DDOT = 0

CCSDS_OMM_VERS = 2.0
CREATION_DATE  = 
ORIGINATOR     = 

OBJECT_NAME    = COSMOS 1833
OBJECT_ID      = 1987-027A
CENTER_NAME    = EARTH
REF_FRAME      = TEME
TIME_SYSTEM    = UTC
MEAN_ELEMENT_THEORY = SGP/SGP4

EPOCH          = 2026-01-24T11:24:20.059488
MEAN_MOTION    = 14.13050452
ECCENTRICITY   = .00245071
INCLINATION    = 70.9195
RA_OF_ASC_NODE = 58.9461
ARG_OF_PERICENTER = 273.1935
MEAN_ANOMALY   = 86.6382

EPHEMERIS_TYPE = 0
CLASSIFICATION_TYPE = U
NORAD_CAT_ID   = 17589
ELEMENT_SET_NO = 999
REV_AT_EPOCH   = 407
BSTAR          = .15355866E-3
MEAN_MOTION_DOT = .239E-5
MEAN_MOTION_DDOT = 0

CCSDS_OMM_VERS = 2.0
CREATION_DATE  = 
ORIGINATOR     = 

OBJECT_NAME    = SL-16 R/B
OBJECT_ID      = 1987-027B
CENTER_NAME    = EARTH
REF_FRAME      = TEME
TIME_SYSTEM    = UTC
MEAN_ELEMENT_THEORY = SGP/SGP4

EPOCH          = 2026-01-24T22:18:58.734144
MEAN_MOTION    = 14.17159869
ECCENTRICITY   = .00059696
INCLINATION    = 71.0035
RA_OF_ASC_NODE = 8.7050
ARG_OF_PERICENTER = 211.7304
MEAN_ANOMALY   = 148.3460

EPHEMERIS_TYPE = 0
CLASSIFICATION_TYPE = U
NORAD_CAT_ID   = 17590
ELEMENT_SET_NO = 999
REV_AT_EPOCH   = 914
BSTAR          = .64856428E-4
MEAN_MOTION_DOT = .83E-6
MEAN_MOTION_DDOT = 0

CCSDS_OMM_VERS = 2.0
CREATION_DATE  = 
ORIGINATOR     = 

OBJECT_NAME    = SL-14 R/B
OBJECT_ID      = 1987-038B
CENTER_NAME    = EARTH
REF_FRAME      = TEME
TIME_SYSTEM    = UTC
MEAN_ELEMENT_THEORY = SGP/SGP4

EPOCH          = 2026-01-24T13:49:46.467264
MEAN_MOTION    = 14.85316802
ECCENTRICITY   = .00181409
INCLINATION    = 82.5035
RA_OF_ASC_NODE = 338.3516
ARG_OF_PERICENTER = 314.1055
MEAN_ANOMALY   = 45.8667

EPHEMERIS_TYPE = 0
CLASSIFICATION_TYPE = U
NORAD_CAT_ID   = 17912
ELEMENT_SET_NO = 999
REV_AT_EPOCH   = 7268
BSTAR          = .10853832E-3
MEAN_MOTION_DOT = .959E-5
MEAN_MOTION_DDOT = 0

CCSDS_OMM_VERS = 2.0
CREATION_DATE  = 
ORIGINATOR     = 

OBJECT_NAME    = COSMOS 1844
OBJECT_ID      = 1987-041A
CENTER_NAME    = EARTH
REF_FRAME      = TEME
TIME_SYSTEM    = UTC
MEAN_ELEMENT_THEORY = SGP/SGP4

EPOCH          = 2026-01-24T16:45:48.424032
MEAN_MOTION    = 14.14535052
ECCENTRICITY   = .00283959
INCLINATION    = 70.8991
RA_OF_ASC_NODE = 126.9668
ARG_OF_PERICENTER = 88.4829
MEAN_ANOMALY   = 271.9545

EPHEMERIS_TYPE = 0
CLASSIFICATION_TYPE = U
NORAD_CAT_ID   = 17973
ELEMENT_SET_NO = 999
REV_AT_EPOCH   = 99736
BSTAR          = -.52455786E-4
MEAN_MOTION_DOT = -.149E-5
MEAN_MOTION_DDOT = 0

CCSDS_OMM_VERS = 2.0
CREATION_DATE  = 
ORIGINATOR     = 

OBJECT_NAME    = SL-14 R/B
OBJECT_ID      = 1987-055B
CENTER_NAME    = EARTH
REF_FRAME      = TEME
TIME_SYSTEM    = UTC
MEAN_ELEMENT_THEORY = SGP/SGP4

EPOCH          = 2026-01-24T10:13:30.307872
MEAN_MOTION    = 14.85571944
ECCENTRICITY   = .00212587
INCLINATION    = 82.4977
RA_OF_ASC_NODE = 30.7488
ARG_OF_PERICENTER = 155.9187
MEAN_ANOMALY   = 204.3028

EPHEMERIS_TYPE = 0
CLASSIFICATION_TYPE = U
NORAD_CAT_ID   = 18153
ELEMENT_SET_NO = 999
REV_AT_EPOCH   = 6336
BSTAR          = .95571825E-4
MEAN_MOTION_DOT = .854E-5
MEAN_MOTION_DDOT = 0

CCSDS_OMM_VERS = 2.0
CREATION_DATE  = 
ORIGINATOR     = 

OBJECT_NAME    = COSMOS 1867
OBJECT_ID      = 1987-060A
CENTER_NAME    = EARTH
REF_FRAME      = TEME
TIME_SYSTEM    = UTC
MEAN_ELEMENT_THEORY = SGP/SGP4

EPOCH          = 2026-01-24T10:16:51.701952
MEAN_MOTION    = 14.31495026
ECCENTRICITY   = .00139556
INCLINATION    = 65.0103
RA_OF_ASC_NODE = 70.6575
ARG_OF_PERICENTER = 275.2014
MEAN_ANOMALY   = 84.7477

EPHEMERIS_TYPE = 0
CLASSIFICATION_TYPE = U
NORAD_CAT_ID   = 18187
ELEMENT_SET_NO = 999
REV_AT_EPOCH   = 1360
BSTAR          = .47282302E-4
MEAN_MOTION_DOT = .26E-6
MEAN_MOTION_DDOT = 0

CCSDS_OMM_VERS = 2.0
CREATION_DATE  = 
ORIGINATOR     = 

OBJECT_NAME    = SL-14 R/B
OBJECT_ID      = 1988-001B
CENTER_NAME    = EARTH
REF_FRAME      = TEME
TIME_SYSTEM    = UTC
MEAN_ELEMENT_THEORY = SGP/SGP4

EPOCH          = 2026-01-24T22:58:28.217856
MEAN_MOTION    = 14.85474793
ECCENTRICITY   = .00187903
INCLINATION    = 82.5105
RA_OF_ASC_NODE = 236.4976
ARG_OF_PERICENTER = 27.3543
MEAN_ANOMALY   = 332.8658

EPHEMERIS_TYPE = 0
CLASSIFICATION_TYPE = U
NORAD_CAT_ID   = 18749
ELEMENT_SET_NO = 999
REV_AT_EPOCH   = 3553
BSTAR          = .84337083E-4
MEAN_MOTION_DOT = .754E-5
MEAN_MOTION_DDOT = 0

