SL-14 R/B               
1 16792U 86046B   26024.68923409  .00000856  00000+0  95884-4 0  9990
2 16792  82.4834 121.7555 0023490  17.1807 343.0198 14.85542658119876
SL-14 R/B               
1 16882U 86055B   26024.67681755  .00001026  00000+0  11544-3 0  9994
2 16882  82.5218 168.0263 0020275 115.9820 255.0201 14.85588167112834
AJISAI (EGS)            
1 16908U 86061A   26024.96774229 -.00000082  00000+0  10925-3 0  9995
2 16908  50.0061 227.7940 0011265 174.6358 342.2682 12.44515243462558
COSMOS 1812             
1 17295U 87003A   26024.07903673  .00220051  00000+0  82159-3 0  9998
2 17295  82.4810 245.8176 0001421  42.1643 317.9737 15.87397397137344
SL-14 R/B               
1 17567U 87024B   26024.73865567  .00000889  00000+0  98448-4 0  9999
2 17567  82.5303 134.0642 0019370  49.6069 310.6834 14.86083511 81600
COSMOS 1833             
1 17589U 87027A   26024.47523217  .00000239  00000+0  15356-3 0  9995
2 17589  70.9195  58.9461 0024507 273.1935  86.6382 14.13050452  4073
SL-16 R/B               
1 17590U 87027B   26024.92984646  .00000083  00000+0  64856-4 0  9991
2 17590  71.0035   8.7050 0005969 211.7304 148.3460 14.17159869  9148
SL-14 R/B               
1 17912U 87038B   26024.57623226  .00000959  00000+0  10854-3 0  9996
2 17912  82.5035 338.3516 0018140 314.1055  45.8667 14.85316802 72684
COSMOS 1844             
1 17973U 87041A   26024.69847713 -.00000149  00000+0 -52456-4 0  9997
2 17973  70.8991 126.9668 0028395  88.4829 271.9545 14.14535052997364
SL-14 R/B               
1 18153U 87055B   26024.42604523  .00000854  00000+0  95572-4 0  9991
2 18153  82.4977  30.7488 0021258 155.9187 204.3028 14.85571944 63366
COSMOS 1867             
1 18187U 87060A   26024.42837618  .00000026  00000+0  47282-4 0  9993
2 18187  65.0103  70.6575 0013955 275.2014  84.7477 14.31495026 13608
SL-14 R/B               
1 18749U 88001B   26024.95727104  .00000754  00000+0  84337-4 0  9999
2 18749  82.5105 236.4976 0018790  27.3543 332.8658 14.85474793 35531
